GLOBALSTAR M067         
1 32263U 07048A   24180.19948558 -.00000060  00000+0  27876-3 0  9998
2 32263  51.9747 351.7102 0000478  23.6057 147.5910 12.40648271765541
GLOBALSTAR M070         
1 32264U 07048B   24180.61438411 -.00000065  00000+0  21673-3 0  9992
2 32264  51.9739 125.6088 0000773  39.6058 131.2160 12.62294932769995
GLOBALSTAR M068         
1 32266U 07048D   24180.57792397 -.00000027  00000+0  42782-3 0  9997
2 32266  51.9900 300.1496 0001539  99.2024 275.0216 12.62792728772883
GLOBALSTAR M074         
1 37189U 10054B   24180.59215012 -.00000089  00000+0  82246-4 0  9991
2 37189  52.0000 135.5628 0000390  32.5830 140.0621 12.62269813632476
GLOBALSTAR M076         
1 37190U 10054C   24180.61794265 -.00000118  00000+0 -81618-4 0  9994
2 37190  52.0021 135.6223 0000559 339.6326 191.2204 12.62262247632122
GLOBALSTAR M077         
1 37191U 10054D   24180.52558897 -.00000079  00000+0  13686-3 0  9998
2 37191  52.0079  92.6576 0000683  43.8691 127.0431 12.62274154632484
